KUZGTU 1 (RS47S)        
1 57217U 23091AV  26186.28041833  .00019103  00000+0  65211-3 0  9990
2 57217  97.5048 250.9487 0011088  40.3862 319.8199 15.30309298167142
SONATE-2                
1 59112U 24043Q   26185.97773330  .00063960  00000+0  78271-3 0  9993
2 59112  97.5552 337.4841 0007050 138.7843 221.3947 15.60161084130665
MESAT1                  
1 60209U 24125G   26186.08295685  .00102783  00000+0  10198-2 0  9998
2 60209  97.2261  43.9963 0010849 144.0451 216.1541 15.65387255112361
OOV-CUBE (TUBSAT-30)    
1 60240U 24128F   26186.08717039  .00003194  00000+0  24825-3 0  9997
2 60240  61.9939 163.1528 0042380 137.7206 222.7166 15.02845362108809
COLIBRI-S (RS67S)       
1 61746U 24199M   26186.28984053  .00031520  00000+0  59170-3 0  9996
2 61746  97.2964  60.3151 0007660 198.3173 161.7803 15.48530920140211
HORS 3 (RS81S)          
1 61753U 24199U   26186.29401406  .00054789  00000+0  77487-3 0  9994
2 61753  97.2943  62.5086 0005803 188.5523 171.5634 15.56340153140378
HORS 4 (RS82S)          
1 61754U 24199V   26186.26151896  .00078290  00000+0  90663-3 0  9991
2 61754  97.2887  63.7993 0005781 177.9615 182.1668 15.61562088140469
SIT-2086                
1 61764U 24199AF  26186.29428340  .00056282  00000+0  85247-3 0  9995
2 61764  97.2900  62.9224 0007097 175.6370 184.4947 15.54450523137248
HYPERVIEW 1G (RS66S)    
1 61772U 24199AP  26186.19392876  .00282260  00000+0  13621-2 0  9990
2 61772  97.2814  66.8906 0007602 167.6955 192.4501 15.81804363137513
ALTAIR (RS65S)          
1 61779U 24199AW  26186.27386247  .00013303  00000+0  36434-3 0  9999
2 61779  97.3003  55.5070 0011075 235.3193 124.7009 15.37383772139895
ASRTU-1 (AO-123)        
1 61781U 24199AY  26186.27807970  .00012127  00000+0  34786-3 0  9994
2 61781  97.2974  54.7862 0012096 239.3152 120.6901 15.35950468136700
SAMSAT-IONOSPHERE (RS7*)
1 61784U 24199BB  26186.16689785  .00076009  00000+0  95714-3 0  9994
2 61784  97.2908  62.4949 0007909 194.5541 165.5490 15.59352421140362
RTU MIREA 1 (RS51S)     
1 61785U 24199BC  26186.27721516  .00087588  00000+0  94698-3 0  9990
2 61785  97.2897  63.5379 0008026 188.1395 171.9735 15.63285876137291
TEVEL2-4                
1 63213U 25052D   26186.17526082  .00032201  00000+0  93863-3 0  9992
2 63213  97.3873  82.6013 0004313  70.7177 289.4533 15.35300783 72877
TEVEL2-5                
1 63214U 25052E   26186.13264783  .00033647  00000+0  98634-3 0  9992
2 63214  97.3874  82.5017 0004358  71.7638 288.4080 15.35113750 72865
TEVEL2-6                
1 63215U 25052F   26186.14538739  .00033503  00000+0  98325-3 0  9997
2 63215  97.3878  82.4992 0004246  73.5451 286.6259 15.35078686 72866
TEVEL2-1                
1 63217U 25052H   26186.18078674  .00030960  00000+0  92519-3 0  9993
2 63217  97.3845  82.1371 0004779  79.9746 280.2036 15.34522825 72858
TEVEL2-3                
1 63218U 25052J   26186.17474933  .00032082  00000+0  95672-3 0  9991
2 63218  97.3854  82.1553 0004601  81.1194 279.0570 15.34582025 72854
TEVEL2-2                
1 63219U 25052K   26186.18098419  .00032287  00000+0  96427-3 0  9990
2 63219  97.3851  82.1402 0004820  80.0864 280.0923 15.34532608 72856
OTP-2                   
1 63235U 25052AB  26185.95387186  .00012315  00000+0  50685-3 0  9990
2 63235  97.3847  78.1191 0008316  98.5462 261.6718 15.24240704 72579
TEVEL2-9                
1 63237U 25052AD  26185.65955589  .00029568  00000+0  94211-3 0  9998
2 63237  97.3915  80.9557 0008146  85.7788 274.4385 15.32469764 72709
TEVEL2-7                
1 63238U 25052AE  26186.16105619  .00028929  00000+0  92994-3 0  9993
2 63238  97.3915  81.3642 0008323  84.2056 276.0135 15.32188755 72775
TEVEL2-8                
1 63239U 25052AF  26186.16948218  .00027422  00000+0  88213-3 0  9990
2 63239  97.3914  81.3488 0008367  85.0998 275.1199 15.32175555 72779
INNOSAT 16 (RS92S7)     
1 64878U 25155C   26186.17113440  .00008770  00000+0  34665-3 0  9993
2 64878  97.4578 153.2443 0012275 118.3656 241.8822 15.25659911 83411
GEOSCAN 6 (RS92S6)      
1 64879U 25155D   26186.16334043  .00016473  00000+0  55957-3 0  9993
2 64879  97.4569 154.7893 0009923 110.0768 250.1541 15.30512102 83514
GEOSCAN 1 (RS92S1)      
1 64880U 25155E   26186.28929499  .00016842  00000+0  56089-3 0  9990
2 64880  97.4565 155.0799 0009854 109.7783 250.4522 15.31149559 83544
239ALFEROV (RS61S)      
1 64881U 25155F   26186.16717990  .00022610  00000+0  69930-3 0  9998
2 64881  97.4566 155.5803 0009541 109.5283 250.6991 15.33462945 83566
GEOSCAN 2 (RS92S2)      
1 64890U 25155Q   26186.27983940  .00017329  00000+0  57248-3 0  9990
2 64890  97.4564 155.2300 0009250  99.5610 260.6677 15.31408333 83552
GEOSCAN 5 (RS92S5)      
1 64891U 25155R   26186.28299046  .00021373  00000+0  65496-3 0  9997
2 64891  97.4557 155.8415 0008513 113.0723 247.1418 15.33778585 83594
GEOSCAN 4 (RS92S4)      
1 64892U 25155S   26186.26531897  .00022675  00000+0  69100-3 0  9991
2 64892  97.4561 155.8774 0008494 113.1474 247.0664 15.33942593 83594
