OBJECT_NAME,OBJECT_ID,EPOCH,MEAN_MOTION,ECCENTRICITY,INCLINATION,RA_OF_ASC_NODE,ARG_OF_PERICENTER,MEAN_ANOMALY,EPHEMERIS_TYPE,CLASSIFICATION_TYPE,NORAD_CAT_ID,ELEMENT_SET_NO,REV_AT_EPOCH,BSTAR,MEAN_MOTION_DOT,MEAN_MOTION_DDOT
KUZGTU 1 (RS47S),2023-091AV,2026-07-05T06:43:48.143712,15.30309298,.00110883,97.5048,250.9487,40.3862,319.8199,0,U,57217,999,16714,.65211003E-3,.19103E-3,0
SONATE-2,2024-043Q,2026-07-04T23:27:56.157120,15.60161084,.00070502,97.5552,337.4841,138.7843,221.3947,0,U,59112,999,13066,.78271373E-3,.6396E-3,0
MESAT1,2024-125G,2026-07-05T01:59:27.471840,15.65387255,.00108494,97.2261,43.9963,144.0451,216.1541,0,U,60209,999,11236,.10197524E-2,.102783E-2,0
OOV-CUBE (TUBSAT-30),2024-128F,2026-07-05T02:05:31.521696,15.02845362,.00423803,61.9939,163.1528,137.7206,222.7166,0,U,60240,999,10880,.24824533E-3,.3194E-4,0
COLIBRI-S (RS67S),2024-199M,2026-07-05T06:57:22.221792,15.48530920,.00076602,97.2964,60.3151,198.3173,161.7803,0,U,61746,999,14021,.591698E-3,.3152E-3,0
HORS 3 (RS81S),2024-199U,2026-07-05T07:03:22.814784,15.56340153,.00058036,97.2943,62.5086,188.5523,171.5634,0,U,61753,999,14037,.77487089E-3,.54789E-3,0
HORS 4 (RS82S),2024-199V,2026-07-05T06:16:35.238144,15.61562088,.0005781,97.2887,63.7993,177.9615,182.1668,0,U,61754,999,14046,.9066341E-3,.7829E-3,0
SIT-2086,2024-199AF,2026-07-05T07:03:46.085760,15.54450523,.00070976,97.2900,62.9224,175.6370,184.4947,0,U,61764,999,13724,.85246741E-3,.56282E-3,0
HYPERVIEW 1G (RS66S),2024-199AP,2026-07-05T04:39:15.444864,15.81804363,.00076025,97.2814,66.8906,167.6955,192.4501,0,U,61772,999,13751,.13621227E-2,.28226E-2,0
ALTAIR (RS65S),2024-199AW,2026-07-05T06:34:21.717408,15.37383772,.00110758,97.3003,55.5070,235.3193,124.7009,0,U,61779,999,13989,.36434264E-3,.13303E-3,0
ASRTU-1 (AO-123),2024-199AY,2026-07-05T06:40:26.086080,15.35950468,.00120969,97.2974,54.7862,239.3152,120.6901,0,U,61781,999,13670,.34786466E-3,.12127E-3,0
SAMSAT-IONOSPHERE (RS75S),2024-199BB,2026-07-05T04:00:19.974240,15.59352421,.00079099,97.2908,62.4949,194.5541,165.5490,0,U,61784,999,14036,.95713891E-3,.76009E-3,0
RTU MIREA 1 (RS51S),2024-199BC,2026-07-05T06:39:11.389824,15.63285876,.00080269,97.2897,63.5379,188.1395,171.9735,0,U,61785,999,13729,.9469764E-3,.87588E-3,0
TEVEL2-4,2025-052D,2026-07-05T04:12:22.534848,15.35300783,.00043133,97.3873,82.6013,70.7177,289.4533,0,U,63213,999,7287,.93863468E-3,.32201E-3,0
TEVEL2-5,2025-052E,2026-07-05T03:11:00.772512,15.35113750,.00043584,97.3874,82.5017,71.7638,288.4080,0,U,63214,999,7286,.98633586E-3,.33647E-3,0
TEVEL2-6,2025-052F,2026-07-05T03:29:21.470496,15.35078686,.00042467,97.3878,82.4992,73.5451,286.6259,0,U,63215,999,7286,.98324941E-3,.33503E-3,0
TEVEL2-1,2025-052H,2026-07-05T04:20:19.974336,15.34522825,.00047791,97.3845,82.1371,79.9746,280.2036,0,U,63217,999,7285,.92518709E-3,.3096E-3,0
TEVEL2-3,2025-052J,2026-07-05T04:11:38.342112,15.34582025,.00046014,97.3854,82.1553,81.1194,279.0570,0,U,63218,999,7285,.95671915E-3,.32082E-3,0
TEVEL2-2,2025-052K,2026-07-05T04:20:37.034016,15.34532608,.00048204,97.3851,82.1402,80.0864,280.0923,0,U,63219,999,7285,.96426954E-3,.32287E-3,0
OTP-2,2025-052AB,2026-07-04T22:53:34.528704,15.24240704,.00083167,97.3847,78.1191,98.5462,261.6718,0,U,63235,999,7257,.5068512E-3,.12315E-3,0
TEVEL2-9,2025-052AD,2026-07-04T15:49:45.628896,15.32469764,.00081461,97.3915,80.9557,85.7788,274.4385,0,U,63237,999,7270,.94211E-3,.29568E-3,0
TEVEL2-7,2025-052AE,2026-07-05T03:51:55.254816,15.32188755,.00083238,97.3915,81.3642,84.2056,276.0135,0,U,63238,999,7277,.92993745E-3,.28929E-3,0
TEVEL2-8,2025-052AF,2026-07-05T04:04:03.260352,15.32175555,.00083679,97.3914,81.3488,85.0998,275.1199,0,U,63239,999,7277,.88213415E-3,.27422E-3,0
INNOSAT 16 (RS92S7),2025-155C,2026-07-05T04:06:26.012160,15.25659911,.00122756,97.4578,153.2443,118.3656,241.8822,0,U,64878,999,8341,.3466542E-3,.877E-4,0
GEOSCAN 6 (RS92S6),2025-155D,2026-07-05T03:55:12.613152,15.30512102,.0009923,97.4569,154.7893,110.0768,250.1541,0,U,64879,999,8351,.55957492E-3,.16473E-3,0
GEOSCAN 1 (RS92S1),2025-155E,2026-07-05T06:56:35.087136,15.31149559,.00098547,97.4565,155.0799,109.7783,250.4522,0,U,64880,999,8354,.56089361E-3,.16842E-3,0
239ALFEROV (RS61S),2025-155F,2026-07-05T04:00:44.343360,15.33462945,.00095413,97.4566,155.5803,109.5283,250.6991,0,U,64881,999,8356,.69930385E-3,.2261E-3,0
GEOSCAN 2 (RS92S2),2025-155Q,2026-07-05T06:42:58.124160,15.31408333,.00092501,97.4564,155.2300,99.5610,260.6677,0,U,64890,999,8355,.57247554E-3,.17329E-3,0
GEOSCAN 5 (RS92S5),2025-155R,2026-07-05T06:47:30.375744,15.33778585,.00085133,97.4557,155.8415,113.0723,247.1418,0,U,64891,999,8359,.65495587E-3,.21373E-3,0
GEOSCAN 4 (RS92S4),2025-155S,2026-07-05T06:22:03.559008,15.33942593,.00084948,97.4561,155.8774,113.1474,247.0664,0,U,64892,999,8359,.69100043E-3,.22675E-3,0
